{
  "norad_id": 68664,
  "name": "STARLINK-37153",
  "history": [
    {
      "epoch": "2026-04-22T14:43:38.635104Z",
      "apogee_km": 344.6043836405106,
      "perigee_km": 343.2424941955851,
      "latitude_deg": 3.610190264994678e-05,
      "longitude_deg": -87.92699145838472,
      "height_km": 346.94746618573555,
      "semi_major_axis_km": 6722.060438918047,
      "eccentricity": 0.0001013,
      "inclination_deg": 97.2841,
      "raan_deg": 343.6567,
      "arg_perigee_deg": 77.8953,
      "mean_anomaly_deg": 282.2426,
      "mean_motion_rev_day": 15.75248746
    }
  ]
}